[{"OBJECT_NAME":"KOREASAT 6","OBJECT_ID":"2010-070B","EPOCH":"2026-03-03T18:15:29.230272","MEAN_MOTION":1.00269822,"ECCENTRICITY":0.0002482,"INCLINATION":0.038,"RA_OF_ASC_NODE":267.6382,"ARG_OF_PERICENTER":63.5367,"MEAN_ANOMALY":264.0804,"EPHEMERIS_TYPE":0,"CLASSIFICATION_TYPE":"U","NORAD_CAT_ID":37265,"ELEMENT_SET_NO":999,"REV_AT_EPOCH":5571,"BSTAR":0,"MEAN_MOTION_DOT":-1.26e-6,"MEAN_MOTION_DDOT":0},{"OBJECT_NAME":"BEIDOU-2 IGSO-3","OBJECT_ID":"2011-013A","EPOCH":"2026-02-27T21:48:44.352288","MEAN_MOTION":1.00294022,"ECCENTRICITY":0.00350296,"INCLINATION":62.2642,"RA_OF_ASC_NODE":41.1818,"ARG_OF_PERICENTER":190.8154,"MEAN_ANOMALY":358.7681,"EPHEMERIS_TYPE":0,"CLASSIFICATION_TYPE":"U","NORAD_CAT_ID":37384,"ELEMENT_SET_NO":999,"REV_AT_EPOCH":5456,"BSTAR":0,"MEAN_MOTION_DOT":-1.54e-6,"MEAN_MOTION_DDOT":0},{"OBJECT_NAME":"INTELSAT 28 (IS-28)","OBJECT_ID":"2011-016A","EPOCH":"2026-03-03T19:03:39.615264","MEAN_MOTION":1.00272709,"ECCENTRICITY":0.0004656,"INCLINATION":1.5338,"RA_OF_ASC_NODE":83.9913,"ARG_OF_PERICENTER":257.7743,"MEAN_ANOMALY":73.986,"EPHEMERIS_TYPE":0,"CLASSIFICATION_TYPE":"U","NORAD_CAT_ID":37392,"ELEMENT_SET_NO":999,"REV_AT_EPOCH":5222,"BSTAR":0,"MEAN_MOTION_DOT":-2.38e-6,"MEAN_MOTION_DDOT":0},{"OBJECT_NAME":"YAHSAT 1A","OBJECT_ID":"2011-016B","EPOCH":"2026-03-03T10:54:07.030656","MEAN_MOTION":1.00271907,"ECCENTRICITY":0.00033644,"INCLINATION":0.0105,"RA_OF_ASC_NODE":133.0584,"ARG_OF_PERICENTER":218.7442,"MEAN_ANOMALY":25.4291,"EPHEMERIS_TYPE":0,"CLASSIFICATION_TYPE":"U","NORAD_CAT_ID":37393,"ELEMENT_SET_NO":999,"REV_AT_EPOCH":4134,"BSTAR":0,"MEAN_MOTION_DOT":8.6e-7,"MEAN_MOTION_DDOT":0},{"OBJECT_NAME":"SBIRS GEO-1 (USA 230)","OBJECT_ID":"2011-019A","EPOCH":"2026-03-03T16:01:57.029088","MEAN_MOTION":1.00272031,"ECCENTRICITY":0.0002292,"INCLINATION":4.304,"RA_OF_ASC_NODE":53.092,"ARG_OF_PERICENTER":289.9678,"MEAN_ANOMALY":110.6551,"EPHEMERIS_TYPE":0,"CLASSIFICATION_TYPE":"U","NORAD_CAT_ID":37481,"ELEMENT_SET_NO":999,"REV_AT_EPOCH":5434,"BSTAR":0,"MEAN_MOTION_DOT":8.8e-7,"MEAN_MOTION_DDOT":0},{"OBJECT_NAME":"TELSTAR 14R","OBJECT_ID":"2011-021A","EPOCH":"2026-03-03T10:21:10.189152","MEAN_MOTION":1.00272583,"ECCENTRICITY":0.00023996,"INCLINATION":0.0387,"RA_OF_ASC_NODE":274.395,"ARG_OF_PERICENTER":73.9963,"MEAN_ANOMALY":265.0764,"EPHEMERIS_TYPE":0,"CLASSIFICATION_TYPE":"U","NORAD_CAT_ID":37602,"ELEMENT_SET_NO":999,"REV_AT_EPOCH":5477,"BSTAR":0,"MEAN_MOTION_DOT":-2.95e-6,"MEAN_MOTION_DDOT":0},{"OBJECT_NAME":"GSAT-8","OBJECT_ID":"2011-022A","EPOCH":"2026-03-03T17:45:39.588192","MEAN_MOTION":1.00271983,"ECCENTRICITY":0.0007413,"INCLINATION":1.8586,"RA_OF_ASC_NODE":83.167,"ARG_OF_PERICENTER":214.7348,"MEAN_ANOMALY":185.0542,"EPHEMERIS_TYPE":0,"CLASSIFICATION_TYPE":"U","NORAD_CAT_ID":37605,"ELEMENT_SET_NO":999,"REV_AT_EPOCH":5216,"BSTAR":0,"MEAN_MOTION_DOT":7.2e-7,"MEAN_MOTION_DDOT":0},{"OBJECT_NAME":"ST-2","OBJECT_ID":"2011-022B","EPOCH":"2026-03-03T15:53:36.968352","MEAN_MOTION":1.00268255,"ECCENTRICITY":0.0001941,"INCLINATION":0.0271,"RA_OF_ASC_NODE":241.7185,"ARG_OF_PERICENTER":113.2093,"MEAN_ANOMALY":132.8926,"EPHEMERIS_TYPE":0,"CLASSIFICATION_TYPE":"U","NORAD_CAT_ID":37606,"ELEMENT_SET_NO":999,"REV_AT_EPOCH":5422,"BSTAR":0,"MEAN_MOTION_DOT":-2.24e-6,"MEAN_MOTION_DDOT":0},{"OBJECT_NAME":"ZHONGXING-10","OBJECT_ID":"2011-026A","EPOCH":"2026-03-03T19:36:58.919904","MEAN_MOTION":1.00269127,"ECCENTRICITY":0.0002674,"INCLINATION":0.7744,"RA_OF_ASC_NODE":85.5631,"ARG_OF_PERICENTER":258.9048,"MEAN_ANOMALY":196.8224,"EPHEMERIS_TYPE":0,"CLASSIFICATION_TYPE":"U","NORAD_CAT_ID":37677,"ELEMENT_SET_NO":999,"REV_AT_EPOCH":5394,"BSTAR":0,"MEAN_MOTION_DOT":-2.01e-6,"MEAN_MOTION_DDOT":0},{"OBJECT_NAME":"SES-3","OBJECT_ID":"2011-035A","EPOCH":"2026-03-03T15:17:53.750688","MEAN_MOTION":1.00272106,"ECCENTRICITY":0.0003566,"INCLINATION":1.0539,"RA_OF_ASC_NODE":84.3151,"ARG_OF_PERICENTER":263.7611,"MEAN_ANOMALY":299.7796,"EPHEMERIS_TYPE":0,"CLASSIFICATION_TYPE":"U","NORAD_CAT_ID":37748,"ELEMENT_SET_NO":999,"REV_AT_EPOCH":5353,"BSTAR":0,"MEAN_MOTION_DOT":-1.15e-6,"MEAN_MOTION_DDOT":0},{"OBJECT_NAME":"KAZSAT-2","OBJECT_ID":"2011-035B","EPOCH":"2026-03-03T16:11:56.069664","MEAN_MOTION":1.00274227,"ECCENTRICITY":7.38e-5,"INCLINATION":0.0194,"RA_OF_ASC_NODE":123.2483,"ARG_OF_PERICENTER":188.7141,"MEAN_ANOMALY":178.9518,"EPHEMERIS_TYPE":0,"CLASSIFICATION_TYPE":"U","NORAD_CAT_ID":37749,"ELEMENT_SET_NO":999,"REV_AT_EPOCH":5234,"BSTAR":0,"MEAN_MOTION_DOT":-2.12e-6,"MEAN_MOTION_DDOT":0},{"OBJECT_NAME":"BEIDOU-2 IGSO-4","OBJECT_ID":"2011-038A","EPOCH":"2026-03-03T17:13:01.395264","MEAN_MOTION":1.00265642,"ECCENTRICITY":0.0154374,"INCLINATION":54.5893,"RA_OF_ASC_NODE":166.6259,"ARG_OF_PERICENTER":230.9657,"MEAN_ANOMALY":116.5987,"EPHEMERIS_TYPE":0,"CLASSIFICATION_TYPE":"U","NORAD_CAT_ID":37763,"ELEMENT_SET_NO":999,"REV_AT_EPOCH":5358,"BSTAR":0,"MEAN_MOTION_DOT":-1.14e-6,"MEAN_MOTION_DDOT":0},{"OBJECT_NAME":"ASTRA 1N","OBJECT_ID":"2011-041A","EPOCH":"2026-03-03T14:10:00.255936","MEAN_MOTION":1.00273393,"ECCENTRICITY":0.0004082,"INCLINATION":0.0684,"RA_OF_ASC_NODE":18.5363,"ARG_OF_PERICENTER":359.5223,"MEAN_ANOMALY":14.9782,"EPHEMERIS_TYPE":0,"CLASSIFICATION_TYPE":"U","NORAD_CAT_ID":37775,"ELEMENT_SET_NO":999,"REV_AT_EPOCH":4346,"BSTAR":0,"MEAN_MOTION_DOT":1.05e-6,"MEAN_MOTION_DDOT":0},{"OBJECT_NAME":"BSAT-3C (JCSAT-110R)","OBJECT_ID":"2011-041B","EPOCH":"2026-03-03T18:34:10.176960","MEAN_MOTION":1.0027125,"ECCENTRICITY":6.3e-5,"INCLINATION":0.0294,"RA_OF_ASC_NODE":66.1308,"ARG_OF_PERICENTER":14.6687,"MEAN_ANOMALY":109.2334,"EPHEMERIS_TYPE":0,"CLASSIFICATION_TYPE":"U","NORAD_CAT_ID":37776,"ELEMENT_SET_NO":999,"REV_AT_EPOCH":4941,"BSTAR":0,"MEAN_MOTION_DOT":-3.64e-6,"MEAN_MOTION_DDOT":0},{"OBJECT_NAME":"PAKSAT-1R","OBJECT_ID":"2011-042A","EPOCH":"2026-03-03T19:23:30.212448","MEAN_MOTION":1.00278101,"ECCENTRICITY":0.0002523,"INCLINATION":0.4158,"RA_OF_ASC_NODE":85.7786,"ARG_OF_PERICENTER":303.8701,"MEAN_ANOMALY":100.8073,"EPHEMERIS_TYPE":0,"CLASSIFICATION_TYPE":"U","NORAD_CAT_ID":37779,"ELEMENT_SET_NO":999,"REV_AT_EPOCH":5342,"BSTAR":0,"MEAN_MOTION_DOT":1.4e-6,"MEAN_MOTION_DDOT":0},{"OBJECT_NAME":"SES-2","OBJECT_ID":"2011-049A","EPOCH":"2026-03-03T13:39:40.663296","MEAN_MOTION":1.00272067,"ECCENTRICITY":0.0002927,"INCLINATION":0.0166,"RA_OF_ASC_NODE":76.5814,"ARG_OF_PERICENTER":263.8548,"MEAN_ANOMALY":298.7948,"EPHEMERIS_TYPE":0,"CLASSIFICATION_TYPE":"U","NORAD_CAT_ID":37809,"ELEMENT_SET_NO":999,"REV_AT_EPOCH":5290,"BSTAR":0,"MEAN_MOTION_DOT":-2.1e-6,"MEAN_MOTION_DDOT":0},{"OBJECT_NAME":"ARABSAT-5C","OBJECT_ID":"2011-049B","EPOCH":"2026-03-03T14:10:15.233376","MEAN_MOTION":1.00274087,"ECCENTRICITY":0.0002512,"INCLINATION":0.0554,"RA_OF_ASC_NODE":349.0791,"ARG_OF_PERICENTER":356.5333,"MEAN_ANOMALY":48.3151,"EPHEMERIS_TYPE":0,"CLASSIFICATION_TYPE":"U","NORAD_CAT_ID":37810,"ELEMENT_SET_NO":999,"REV_AT_EPOCH":5297,"BSTAR":0,"MEAN_MOTION_DOT":1.09e-6,"MEAN_MOTION_DDOT":0}]
