KOREASAT 6              
1 37265U 10070B   26062.76075498 -.00000126  00000+0  00000+0 0  9991
2 37265   0.0380 267.6382 0002482  63.5367 264.0804  1.00269822 55718
BEIDOU-2 IGSO-3         
1 37384U 11013A   26058.90884667 -.00000154  00000+0  00000+0 0  9999
2 37384  62.2642  41.1818 0035029 190.8154 358.7681  1.00294022 54567
INTELSAT 28 (IS-28)     
1 37392U 11016A   26062.79420851 -.00000238  00000+0  00000+0 0  9997
2 37392   1.5338  83.9913 0004656 257.7743  73.9860  1.00272709 52227
YAHSAT 1A               
1 37393U 11016B   26062.45424804  .00000086  00000+0  00000+0 0  9993
2 37393   0.0105 133.0584 0003364 218.7442  25.4291  1.00271907 41343
SBIRS GEO-1 (USA 230)   
1 37481U 11019A   26062.66802117  .00000088  00000+0  00000+0 0  9996
2 37481   4.3040  53.0920 0002292 289.9678 110.6551  1.00272031 54340
TELSTAR 14R             
1 37602U 11021A   26062.43136793 -.00000295  00000+0  00000+0 0  9990
2 37602   0.0387 274.3950 0002399  73.9963 265.0764  1.00272583 54779
GSAT-8                  
1 37605U 11022A   26062.74004153  .00000072  00000+0  00000+0 0  9994
2 37605   1.8586  83.1670 0007413 214.7348 185.0542  1.00271983 52160
ST-2                    
1 37606U 11022B   26062.66223343 -.00000224  00000+0  00000+0 0  9990
2 37606   0.0271 241.7185 0001941 113.2093 132.8926  1.00268255 54229
ZHONGXING-10            
1 37677U 11026A   26062.81734861 -.00000201  00000+0  00000+0 0  9996
2 37677   0.7744  85.5631 0002674 258.9048 196.8224  1.00269127 53948
SES-3                   
1 37748U 11035A   26062.63742767 -.00000115  00000+0  00000+0 0  9993
2 37748   1.0539  84.3151 0003566 263.7611 299.7796  1.00272106 53531
KAZSAT-2                
1 37749U 11035B   26062.67495451 -.00000212  00000+0  00000+0 0  9991
2 37749   0.0194 123.2483 0000738 188.7141 178.9518  1.00274227 52345
BEIDOU-2 IGSO-4         
1 37763U 11038A   26062.71737726 -.00000114  00000+0  00000+0 0  9990
2 37763  54.5893 166.6259 0154374 230.9657 116.5987  1.00265642 53587
ASTRA 1N                
1 37775U 11041A   26062.59028074  .00000105  00000+0  00000+0 0  9991
2 37775   0.0684  18.5363 0004082 359.5223  14.9782  1.00273393 43464
BSAT-3C (JCSAT-110R)    
1 37776U 11041B   26062.77372890 -.00000364  00000+0  00000+0 0  9998
2 37776   0.0294  66.1308 0000630  14.6687 109.2334  1.00271250 49410
PAKSAT-1R               
1 37779U 11042A   26062.80798857  .00000140  00000+0  00000+0 0  9992
2 37779   0.4158  85.7786 0002523 303.8701 100.8073  1.00278101 53421
SES-2                   
1 37809U 11049A   26062.56922064 -.00000210  00000+0  00000+0 0  9994
2 37809   0.0166  76.5814 0002927 263.8548 298.7948  1.00272067 52907
ARABSAT-5C              
1 37810U 11049B   26062.59045409  .00000109  00000+0  00000+0 0  9994
2 37810   0.0554 349.0791 0002512 356.5333  48.3151  1.00274087 52970
